0 SL-12 R/B(AUX MOTOR)
1 36115U 09070E   13283.60944742  .00000070  00000-0  33255-3 0   309
2 36115 065.0613 118.8548 5674339 133.0253 291.2754 04.24244574 59019
0 SL-12 R/B(AUX MOTOR)
1 36115U 09070E   13284.11912395  .00000114  00000-0  20312-3 0   292
2 36115 065.0640 118.6699 5674304 133.0011 349.6976 04.24244889 59044
0 SL-12 R/B(AUX MOTOR)
1 36115U 09070E   13286.71012089  .00000120  00000-0  21502-3 0   302
2 36115 065.0653 117.7447 5673610 132.8743 346.8903 04.24245100 59155
0 SL-12 R/B(AUX MOTOR)
1 36115U 09070E   13288.83368608  .00000121  00000-0  26014-3 0   313
2 36115 065.0663 116.9868 5673056 132.7692 350.1844 04.24245301 59245
0 SL-12 R/B(AUX MOTOR)
1 36115U 09070E   13290.68113081  .00000073  00000-0  35131-3 0   329
2 36115 065.0676 116.3273 5672777 132.6806 291.7636 04.24245541 59311
0 SL-12 R/B(AUX MOTOR)
1 36115U 09070E   13290.95161178  .00000087  00000-0  17838-3 0   328
2 36115 065.0672 116.2311 5672529 132.6645 344.8648 04.24245747 59338
0 SL-12 R/B(AUX MOTOR)
1 36115U 09070E   13293.07605508  .00000072  00000-0  15758-3 0   338
2 36115 065.0684 115.4729 5672013 132.5591 349.5033 04.24245998 59420
0 SL-12 R/B(AUX MOTOR)
1 36115U 09070E   13295.91840475  .00000053  00000-0  38812-4 0   344
2 36115 065.0701 114.4586 5671299 132.4188 010.5941 04.24246515 59548
